HYPERFIELD-1A           
1 60562U 24149CY  26068.76488211  .00008569  00000+0  30052-3 0  9998
2 60562  97.3842 149.5066 0003865 313.7844  46.3076 15.29681349 86836
STARLINK-35859          
1 67185U 25303Y   26068.06565655  .00037802  00000+0  13759-2 0  9996
2 67185  43.0016 313.8994 0001659 262.5678  97.4985 15.27586117 12645
